,Suburb,Postcode,Local government area,Location[citation needed],Distance[3][citation needed],Area[citation needed],Population[citation needed],Population density[citation needed],Date established[citation needed],Address,Latitude,Longitude
0,Bellfield,3081,City of Banyule,,,0.9 km2,"1,793[4]",,,"Bellfield, VIC 3081, Australia",-37.7531065,145.0384784
1,Briar Hill,3088,City of Banyule,,,,"3,152[4]",,,"Briar Hill, VIC 3088, Australia",-37.7063703,145.1216479
2,Bundoora,3083,City of Banyule; City of Darebin; City of Whittlesea,,,15 km2,28653,,,"Bundoora, VIC 3083, Australia",-37.69730565,145.066254356098
3,Eaglemont,3084,City of Banyule,,,1.9 km2,3873,,,"Eaglemont, VIC 3084, Australia",-37.7651442,145.0633313
4,Eltham,3095,City of Banyule; Shire of Nillumbik,,,,,,,"Eltham, VIC 3095, Australia",-37.71338695,145.147879912001
5,Eltham North,3095,City of Banyule; Shire of Nillumbik,,,,,,,"Eltham North, VIC 3095, Australia",-37.6978921,145.1417807
6,Greensborough,3088,City of Banyule; Shire of Nillumbik,,,,,,,"Greensborough, VIC 3088, Australia",-37.6988474,145.1074004
7,Heidelberg,3084,City of Banyule,,,,,,,"Heidelberg, VIC 3084, Australia",-37.7524788,145.0701284
8,Heidelberg Heights,3081,City of Banyule,,,,,,,"Heidelberg Heights, VIC 3081, Australia",-37.7451831,145.0529194
9,Heidelberg West,3081,City of Banyule,,,,,,,"Heidelberg West, VIC 3081, Australia",-37.7382431,145.0433922
10,Ivanhoe,3079,City of Banyule,,,,,,,"Ivanhoe, VIC 3079, Australia",-37.7690312,145.0430809
11,Ivanhoe East,3079,City of Banyule,,,,,,,"Ivanhoe East, VIC 3079, Australia",-37.7733903,145.0617815
12,Lower Plenty,3093,City of Banyule,,,,,,,"Lower Plenty, VIC 3093, Australia",-37.7388437,145.116224
13,Macleod,3085,City of Banyule; City of Darebin,,,,,,,"Macleod, VIC 3085, Australia",-37.7204404,145.069828
14,Montmorency,3094,City of Banyule,,,,,,,"Montmorency, VIC 3094, Australia",-37.7189715,145.1256231
15,Rosanna,3084,City of Banyule,,,,,,,"Rosanna, VIC 3084, Australia",-37.7396345,145.0696349
16,St Helena,3088,City of Banyule,,,,,,,"St Helena, VIC 3088, Australia",-37.6895135,145.1295774
17,Viewbank,3084,City of Banyule,,,,,,,"Viewbank, VIC 3084, Australia",-37.7399103,145.0932329
18,Watsonia,3087,City of Banyule,,,,,,,"Watsonia, VIC 3087, Australia",-37.7097848,145.0832709
19,Watsonia North,3087,City of Banyule,,,,,,,"Watsonia North, VIC 3087, Australia",-37.696046,145.084977
20,Yallambie,3085,City of Banyule,,,,,,,"Yallambie, VIC 3085, Australia",-37.7251655,145.0935218
21,Beaumaris,3193,City of Bayside,,,,,,,"Beaumaris, VIC 3193, Australia",-37.9822122,145.0389098
22,Black Rock,3193,City of Bayside,,,,,,,"Black Rock, VIC 3193, Australia",-37.9705189,145.0229519
23,Brighton,3186,City of Bayside,,,,,,,"Brighton, VIC 3186, Australia",-37.90560815,145.002750613033
24,Brighton East,3187,City of Bayside,,,,,,,"Brighton East, VIC 3187, Australia",-37.9171728,145.0163663
25,Cheltenham,3192,City of Bayside; City of Kingston,,,,,,,"Cheltenham, VIC 3192, Australia",-37.9634181,145.0615668
26,Gardenvale,3185,City of Bayside,,,,,,,"Gardenvale, VIC 3185, Australia",-37.8981194,145.0091824
27,Hampton,3188,City of Bayside,,,,,,,"Hampton, VIC 3188, Australia",-37.9374028,145.0091238
28,Hampton East,3188,City of Bayside,,,,,,,"Hampton East, VIC 3188, Australia",-37.9385409,145.0306726
29,Highett,3190,City of Bayside; City of Kingston,,,,,,,"Highett, VIC 3190, Australia",-37.9504036,145.039797
30,Moorabbin,3189,City of Bayside; City of Kingston,,,,,,,"Moorabbin, VIC 3189, Australia",-37.9414646,145.0578383
31,Sandringham,3191,City of Bayside,,,,,,,"Sandringham, VIC 3191, Australia",-37.9533347,145.0139308
32,Ashburton,3147,City of Boroondara,,,,,,,"Ashburton, VIC 3147, Australia",-37.862079,145.0812847
33,Balwyn,3103,City of Boroondara,,,,,,,"Balwyn, VIC 3103, Australia",-37.8091737,145.0833678
34,Balwyn North,3104,City of Boroondara,,,,,,,"Balwyn North, VIC 3104, Australia",-37.7919518,145.0842372
35,Camberwell,3124,City of Boroondara,,,,,,,"Camberwell, VIC 3124, Australia",-37.8384623,145.0740767
36,Canterbury,3126,City of Boroondara,,,,,,,"Canterbury, VIC 3126, Australia",-37.8243448,145.0757933
37,Deepdene,3103,City of Boroondara,,,,,,,"Deepdene, VIC 3103, Australia",-37.8121234,145.0664377
38,Glen Iris,3146,City of Boroondara; City of Stonnington,,,,,,,"Glen Iris, VIC 3146, Australia",-37.855814,145.0646117
39,Hawthorn,3122,City of Boroondara,,,,,,,"Hawthorn, VIC 3122, Australia",-37.8244246,145.0317207
40,Hawthorn East,3123,City of Boroondara,,,,,,,"Hawthorn East, VIC 3123, Australia",-37.8313785,145.0499797
41,Kew,3101,City of Boroondara,,,,,,,"Kew, VIC 3101, Australia",-37.8033586,145.0333285
42,Kew East,3102,City of Boroondara,,,,,,,"Kew East, VIC 3102, Australia",-37.7904215,145.0527906
43,Mont Albert,3127,City of Boroondara; City of Whitehorse,,,,,,,"Mont Albert, VIC 3127, Australia",-37.8175479,145.1075721
44,Mont Albert North,3127,City of Boroondara,,,,,,,"Mont Albert North, VIC 3127, Australia",-37.8033152,145.1107226
45,Surrey Hills,3127,City of Boroondara; City of Whitehorse,,,,,,,"Surrey Hills, VIC 3127, Australia",-37.8271881,145.0978326
46,Albanvale,3021,City of Brimbank,,,,,,,"Albanvale, VIC 3021, Australia",-37.7460824,144.7685623
47,Albion,3020,City of Brimbank,,,,,,,"Albion, VIC 3020, Australia",-37.7763803,144.8160713
48,Ardeer,3022,City of Brimbank,,,,,,,"Ardeer, VIC 3022, Australia",-37.7758681,144.8014637
49,Brooklyn,3012,City of Brimbank; City of Hobsons Bay,,,,,,,"Brooklyn, VIC 3012, Australia",-37.8160898,144.8414748
50,Cairnlea,3023,City of Brimbank,,,,,,,"Cairnlea, VIC 3023, Australia",-37.7593157,144.7878098
51,Calder Park,3037,City of Brimbank,,,,,,,"Calder Park, VIC 3037, Australia",-37.6762639,144.7611396
52,Deer Park,3023,City of Brimbank,,,,,,,"Deer Park, VIC 3023, Australia",-37.7686602,144.7713077
53,Delahey,3037,City of Brimbank,,,,,,,"Delahey, VIC 3037, Australia",-37.7198138,144.7773228
54,Derrimut,3030,City of Brimbank,,,,,,,"Derrimut, VIC 3030, Australia",-37.7987978,144.776051
55,Hillside,3037,City of Brimbank; City of Melton,,,,,,,"Hillside, VIC 3037, Australia",-37.6904862,144.7417358
56,Kealba,3021,City of Brimbank,,,,,,,"Kealba, VIC 3021, Australia",-37.7371074,144.8282988
57,Keilor,3036,City of Brimbank; City of Hume,,,,,,,"Keilor, VIC 3036, Australia",-37.7113545,144.8250696
58,Keilor Downs,3038,City of Brimbank,,,,,,,"Keilor Downs, VIC 3038, Australia",-37.7205762,144.8047614
59,Keilor East,3033,City of Brimbank; City of Moonee Valley,,,,,,,"Keilor East, VIC 3033, Australia",-37.7383776,144.8561207
60,Keilor Lodge,3038,City of Brimbank,,,,,,,"Keilor Lodge, VIC 3038, Australia",-37.6984134,144.7998157
61,Keilor North,3036,City of Brimbank,,,,,,,"Keilor North, VIC 3036, Australia",-37.6816313,144.7930224
62,Keilor Park,3042,City of Brimbank,,,,,,,"Keilor Park, VIC 3042, Australia",-37.7187247,144.8501721
63,Kings Park,3021,City of Brimbank,,,,,,,"Kings Park, VIC 3021, Australia",-37.7337122,144.7719526
64,St Albans,3021,City of Brimbank,,,,,,,"St Albans, VIC 3021, Australia",-37.7450983,144.804976
65,Sunshine,3020,City of Brimbank,,,,,,,"Sunshine, VIC 3020, Australia",-37.7880952,144.832602336914
66,Sunshine North,3020,City of Brimbank,,,,,,,"Sunshine North, VIC 3020, Australia",-37.7639467,144.8361969
67,Sunshine West,3020,City of Brimbank,,,,,,,"Sunshine West, VIC 3020, Australia",-37.7983442,144.8110919
68,Sydenham,3037,City of Brimbank,,,,,,,"Sydenham, VIC 3037, Australia",-37.6997223,144.7653295
69,Taylors Lakes,3038,City of Brimbank,,,,,,,"Taylors Lakes, VIC 3038, Australia",-37.698633,144.7863077
70,Tullamarine,3043,City of Brimbank; City of Hume; City of Moreland,,,,,,,"Tullamarine, VIC 3043, Australia",-37.704658,144.8717732
71,Beaconsfield,3807,Shire of Cardinia,,,,,,,"Beaconsfield, VIC 3807, Australia",-38.0403488,145.3831468
72,Emerald,3782,Shire of Cardinia; Shire of Yarra Ranges,,,,,,,"Emerald, VIC 3782, Australia",-37.93107,145.448889025165
73,Officer,3809,Shire of Cardinia,,,,,,,"Officer, VIC 3809, Australia",-38.049175,145.41180221332
74,Pakenham,3810,Shire of Cardinia,,,,,,,"Pakenham, VIC 3810, Australia",-38.06823555,145.478781133362
75,Avonsleigh,3782,Shire of Cardinia,,,,,,,"Avonsleigh, VIC 3782, Australia",-37.91404,145.482076000566
76,Bayles,3981,Shire of Cardinia,,,,,,,"Bayles, VIC 3981, Australia",-38.1769736,145.573224
77,Beaconsfield Upper,3808,Shire of Cardinia,,,,,,,"Beaconsfield Upper, VIC 3808, Australia",-37.998735,145.425214664948
78,Bunyip,3815,Shire of Cardinia,,,,,,,"Bunyip, VIC 3815, Australia",-38.0971242,145.7208993
79,Bunyip North,3815,Shire of Cardinia,,,,,,,"Bunyip North, VIC 3815, Australia",-38.0971242,145.7208993
80,Caldermeade,3984,Shire of Cardinia,,,,,,,"Caldermeade, VIC 3984, Australia",-38.239565,145.540776833333
81,Cardinia,3978,Shire of Cardinia,,,,,,,"Cardinia, VIC 3978, Australia",-38.13432,145.421166606992
82,Catani,3981,Shire of Cardinia,,,,,,,"Catani, VIC 3981, Australia",-38.1948042,145.6413285
83,Clematis,3782,Shire of Cardinia,,,,,,,"Clematis, VIC 3782, Australia",-37.9340691,145.417641
84,Cockatoo,3781,Shire of Cardinia,,,,,,,"Cockatoo, VIC 3781, Australia",-37.9344942,145.4914766
85,Cora Lynn,3814,Shire of Cardinia,,,,,,,"Cora Lynn, VIC 3814, Australia",-38.1436888,145.6042711
86,Dalmore,3981,Shire of Cardinia,,,,,,,"Dalmore, VIC 3981, Australia",-38.1950098,145.4191387
87,Dewhurst,3809,Shire of Cardinia,,,,,,,"Dewhurst, VIC 3809, Australia",-37.97633,145.474031476148
88,Garfield,3814,Shire of Cardinia,,,,,,,"Garfield, VIC 3814, Australia",-38.0898677,145.676222
89,Garfield North,3814,Shire of Cardinia,,,,,,,"Garfield North, VIC 3814, Australia",-38.03934,145.685876546336
90,Gembrook,3783,Shire of Cardinia,,,,,,,"Gembrook, VIC 3783, Australia",-37.9685261,145.495700419905
91,Guys Hill,3807,Shire of Cardinia,,,,,,,"Guys Hill, VIC 3807, Australia",-38.0142333,145.3906004
92,Heath Hill,3981,Shire of Cardinia; Shire of Baw Baw,,,,,,,"Heath Hill, VIC 3981, Australia",-38.24878,145.691397522341
93,Iona,3815,Shire of Cardinia,,,,,,,"Iona, VIC 3815, Australia",-38.161365,145.686712776183
94,Koo Wee Rup,3981,Shire of Cardinia,,,,,,,"Koo Wee Rup, VIC 3981, Australia",-38.2003356,145.4892906
95,Koo Wee Rup North,3891,Shire of Cardinia,,,,,,,"Koo Wee Rup North, VIC 3891, Australia",-38.1990553,145.492854
96,Lang Lang,3984,Shire of Cardinia,,,,,,,"Lang Lang, VIC 3984, Australia",-38.2660405,145.5627778
97,Lang Lang East,3894,Shire of Cardinia,,,,,,,"Lang Lang East, VIC 3894, Australia",-38.2660405,145.5627778
98,Longwarry,3816,Shire of Cardinia; Shire of Baw Baw,,,,,,,"Longwarry, VIC 3816, Australia",-38.1111387,145.7705953
99,Maryknoll,3812,Shire of Cardinia,,,,,,,"Maryknoll, VIC 3812, Australia",-38.03572,145.601936406463
100,Menzies Creek,3159,Shire of Cardinia; Shire of Yarra Ranges,,,,,,,"Menzies Creek, VIC 3159, Australia",-37.9190646,145.4068204
101,Modella,3816,Shire of Cardinia; Shire of Baw Baw,,,,,,,"Modella, VIC 3816, Australia",-38.1864393,145.7150142
102,Monomeith,3984,Shire of Cardinia,,,,,,,"Monomeith, VIC 3984, Australia",-38.2206497,145.5106763
103,Mount Burnett,3781,Shire of Cardinia,,,,,,,"Mount Burnett, VIC 3781, Australia",-37.972074,145.5203619
104,Nangana,3781,Shire of Cardinia,,,,,,,"Nangana, VIC 3781, Australia",-37.8755206,145.5325074
105,Nar Nar Goon,3812,Shire of Cardinia,,,,,,,"Nar Nar Goon, VIC 3812, Australia",-38.0839572,145.5752662
106,Nar Nar Goon North,3812,Shire of Cardinia,,,,,,,"Nar Nar Goon North, VIC 3812, Australia",-38.029435,145.56357211039
107,Nyora,3987,Shire of Cardinia; South Gippsland Shire; Shire of Baw Baw,,,,,,,"Nyora, VIC 3987, Australia",-38.3347289,145.6708903
108,Officer South,3809,Shire of Cardinia,,,,,,,"Officer South, VIC 3809, Australia",-38.049175,145.41180221332
109,Pakenham South,3810,Shire of Cardinia,,,,,,,"Pakenham South, VIC 3810, Australia",-38.137285,145.491226681719
110,Pakenham Upper,3810,Shire of Cardinia,,,,,,,"Pakenham Upper, VIC 3810, Australia",-38.00863,145.507523289938
111,Rythdale,3810,Shire of Cardinia,,,,,,,"Rythdale, VIC 3810, Australia",-38.1357145,145.4580948
112,Tonimbuk,3815,Shire of Cardinia,,,,,,,"Tonimbuk, VIC 3815, Australia",-38.03121,145.727912634901
113,Tooradin North,3977,Shire of Cardinia,,,,,,,"Tooradin North, VIC 3977, Australia",-38.2138303,145.3816827
114,Tynong,3813,Shire of Cardinia,,,,,,,"Tynong, VIC 3813, Australia",-38.0830345,145.6268414
115,Tynong North,3813,Shire of Cardinia,,,,,,,"Tynong North, VIC 3813, Australia",-38.02976655,145.637866604289
116,Vervale,3814,Shire of Cardinia,,,,,,,"Vervale, VIC 3814, Australia",-37.7129383,144.9735871
117,Yannathan,3894,Shire of Cardinia,,,,,,,"Yannathan, VIC 3894, Australia",-38.223445,145.650533920797
118,Berwick,3806,City of Casey,,,,,,,"Berwick, VIC 3806, Australia",-38.0403826,145.3481493
119,Botanic Ridge,3977,City of Casey,,,,,,,"Botanic Ridge, VIC 3977, Australia",-38.1413786,145.2566183
120,Clyde,3978,City of Casey,,,,,,,"Clyde, VIC 3978, Australia",-38.1326345,145.3290375
121,Clyde North,3978,City of Casey,,,,,,,"Clyde North, VIC 3978, Australia",-38.1028681,145.3302814
122,Cranbourne,3977,City of Casey,,,,,,,"Cranbourne, VIC 3977, Australia",-38.09983825,145.282937771062
123,Cranbourne East,3977,City of Casey,,,,,,,"Cranbourne East, VIC 3977, Australia",-38.1080912,145.3056221
124,Cranbourne North,3977,City of Casey,,,,,,,"Cranbourne North, VIC 3977, Australia",-38.0775184,145.2989039
125,Cranbourne South,3977,City of Casey,,,,,,,"Cranbourne South, VIC 3977, Australia",-38.150625,145.246764684066
126,Doveton,3177,City of Casey,,,,,,,"Doveton, VIC 3177, Australia",-37.9887542,145.2385975
127,Endeavour Hills,3802,City of Casey,,,,,,,"Endeavour Hills, VIC 3802, Australia",-37.9702665,145.2563443
128,Eumemmerring,3177,City of Casey,,,,,,,"Eumemmerring, VIC 3177, Australia",-37.9985273,145.2469497
129,Hallam,3803,City of Casey,,,,,,,"Hallam, VIC 3803, Australia",-38.0074845,145.268858
130,Hampton Park,3976,City of Casey,,,,,,,"Hampton Park, VIC 3976, Australia",-38.0367368,145.2590312
131,Junction Village,3977,City of Casey,,,,,,,"Junction Village, VIC 3977, Australia",-38.1363443,145.2968697
132,Lynbrook,3975,City of Casey,,,,,,,"Lynbrook, VIC 3975, Australia",-38.057638,145.249374360933
133,Narre Warren,3805,City of Casey,,,,,,,"Narre Warren, VIC 3805, Australia",-38.017956,145.3058481
134,Narre Warren North,3804,City of Casey,,,,,,,"Narre Warren North, VIC 3804, Australia",-37.9813391,145.3129016
135,Narre Warren South,3805,City of Casey,,,,,,,"Narre Warren South, VIC 3805, Australia",-38.05439,145.3028513
136,Blind Bight,3980,City of Casey,,,,,,,"Blind Bight, VIC 3980, Australia",-38.2142175,145.3377629
137,Cannons Creek,3977,City of Casey,,,,,,,"Cannons Creek, VIC 3977, Australia",-38.2114954,145.3112899
138,Devon Meadows,3977,City of Casey,,,,,,,"Devon Meadows, VIC 3977, Australia",-38.1620178,145.3024933
139,Harkaway,3806,City of Casey,,,,,,,"Harkaway, VIC 3806, Australia",-37.9926026,145.356141659516
140,Lyndhurst,3975,City of Casey (as a suburb); City of Greater Dandenong (as a rural locality),,,,,,,"Lyndhurst, VIC 3975, Australia",-38.0685384,145.2307493
141,Lysterfield South,3156,City of Casey,,,,,,,"Lysterfield South, VIC 3156, Australia",-37.9524844,145.2669275
142,Pearcedale,3912,City of Casey,,,,,,,"Pearcedale, VIC 3912, Australia",-38.2015815,145.242198
143,Tooradin,3980,City of Casey,,,,,,,"Tooradin, VIC 3980, Australia",-38.2138303,145.3816827
144,Warneet,3980,City of Casey,,,,,,,"Warneet, VIC 3980, Australia",-38.2213749,145.3117316
145,Alphington,3078,City of Darebin; City of Yarra,,,,,,,"Alphington, VIC 3078, Australia",-37.7803992,145.0308824
146,Fairfield,3078,City of Darebin; City of Yarra,,,,,,,"Fairfield, VIC 3078, Australia",-37.7845032,145.0158191
147,Kingsbury,3083,City of Darebin,,,,,,,"Kingsbury, VIC 3083, Australia",-37.715569,145.0355601
148,Northcote,3070,City of Darebin,,,,,,,"Northcote, VIC 3070, Australia",-37.7728157,145.0009469
149,Preston,3072,City of Darebin,,,,,,,"Preston, VIC 3072, Australia",-37.7418658,145.0078205
150,Reservoir,3073,City of Darebin,,,,,,,"Reservoir, VIC 3073, Australia",-37.7123767,145.0074935
151,Thornbury,3071,City of Darebin,,,,,,,"Thornbury, VIC 3071, Australia",-37.7582744,145.0051501
152,Carrum Downs,3201,City of Frankston,,,,,,,"Carrum Downs, VIC 3201, Australia",-38.0927904,145.1758001
153,Frankston,3199,City of Frankston,,,,,,,"Frankston, VIC 3199, Australia",-38.1444729,145.1268808
154,Frankston North,3200,City of Frankston,,,,,,,"Frankston North, VIC 3200, Australia",-38.1228524,145.1609788
155,Frankston South,3199,City of Frankston,,,,,,,"Frankston South, VIC 3199, Australia",-38.1765027,145.1295641
156,Langwarrin,3910,City of Frankston,,,,,,,"Langwarrin, VIC 3910, Australia",-38.1545829,145.1973931
157,Sandhurst,3977,City of Frankston,,,,,,,"Sandhurst, VIC 3977, Australia",-38.0819428,145.21039
158,Seaford,3198,City of Frankston,,,,,,,"Seaford, VIC 3198, Australia",-38.1048309,145.1384475
159,Skye,3977,City of Frankston,,,,,,,"Skye, VIC 3977, Australia",-38.1051265,145.2162331
160,Langwarrin South,3911,City of Frankston,,,,,,,"Langwarrin South, VIC 3911, Australia",-38.1891024,145.1910633
161,Bentleigh,3204,City of Glen Eira,,,,,,,"Bentleigh, VIC 3204, Australia",-37.9185101,145.0409246
162,Bentleigh East,3165,City of Glen Eira,,,,,,,"Bentleigh East, VIC 3165, Australia",-37.9220201,145.0665529
163,Caulfield,3162,City of Glen Eira,,,,,,,"Caulfield, VIC 3162, Australia",-37.882265,145.022462837409
164,Caulfield East,3145,City of Glen Eira,,,,,,,"Caulfield East, VIC 3145, Australia",-37.881276,145.0420847
165,Caulfield North,3161,City of Glen Eira,,,,,,,"Caulfield North, VIC 3161, Australia",-37.870828,145.0218005
166,Caulfield South,3162,City of Glen Eira,,,,,,,"Caulfield South, VIC 3162, Australia",-37.894699,145.0249323
167,Carnegie,3163,City of Glen Eira,,,,,,,"Carnegie, VIC 3163, Australia",-37.8933729,145.0559135
168,Elsternwick,3185,City of Glen Eira,,,,,,,"Elsternwick, VIC 3185, Australia",-37.8858425,145.0070152
169,Gardenvale,3185,City of Glen Eira,,,,,,,"Gardenvale, VIC 3185, Australia",-37.8981194,145.0091824
170,Glen Huntly,3163,City of Glen Eira,,,,,,,"Glen Huntly, VIC 3163, Australia",-37.8923791,145.0413689
171,McKinnon,3204,City of Glen Eira,,,,,,,"McKinnon, VIC 3204, Australia",-37.9105942,145.03863
172,Murrumbeena,3163,City of Glen Eira,,,,,,,"Murrumbeena, VIC 3163, Australia",-37.8968653,145.0703808
173,Ormond,3204,City of Glen Eira,,,,,,,"Ormond, VIC 3204, Australia",-37.9039946,145.0432907
174,St Kilda East,3183,City of Glen Eira; City of Port Phillip,,,,,,,"St Kilda East, VIC 3183, Australia",-37.8668218,145.0021657
175,Dandenong,3175,City of Greater Dandenong,,,,,,,"Dandenong, VIC 3175, Australia",-37.98749,145.2147923
176,Dandenong North,3175,City of Greater Dandenong,,,,,,,"Dandenong North, VIC 3175, Australia",-37.9558319,145.2143234
177,Dandenong South,3175,City of Greater Dandenong,,,,,,,"Dandenong South, VIC 3175, Australia",-38.0279936,145.2209236
178,Keysborough,3173,City of Greater Dandenong,,,,,,,"Keysborough, VIC 3173, Australia",-38.0053607,145.1674069
179,Noble Park,3174,City of Greater Dandenong,,,,,,,"Noble Park, VIC 3174, Australia",-37.9695376,145.176703
180,Noble Park North,3174,City of Greater Dandenong,,,,,,,"Noble Park North, VIC 3174, Australia",-37.9512702,145.1908377
181,Springvale,3171,City of Greater Dandenong,,,,,,,"Springvale, VIC 3171, Australia",-37.9456253,145.1580111
182,Springvale South,3172,City of Greater Dandenong,,,,,,,"Springvale South, VIC 3172, Australia",-37.9708611,145.1478692
183,Bangholme,3175,City of Greater Dandenong,,,,,,,"Bangholme, VIC 3175, Australia",-38.0483919,145.1720859
184,Altona,3018,City of Hobsons Bay,,,,,,,"Altona, VIC 3018, Australia",-37.8602151,144.813703
185,Altona Meadows,3028,City of Hobsons Bay,,,,,,,"Altona Meadows, VIC 3028, Australia",-37.8814419,144.7845482
186,Altona North,3025,City of Hobsons Bay,,,,,,,"Altona North, VIC 3025, Australia",-37.8378229,144.8342853
187,Laverton,3028,City of Hobsons Bay; City of Wyndham,,,,,,,"Laverton, VIC 3028, Australia",-37.8593822,144.7671404
188,Newport,3015,City of Hobsons Bay,,,,,,,"Newport, VIC 3015, Australia",-37.8435966,144.8804797
189,Spotswood,3015,City of Hobsons Bay,,,,,,,"Spotswood, VIC 3015, Australia",-37.8296363,144.887901
190,Seabrook,3028,City of Hobsons Bay,,,,,,,"Seabrook, VIC 3028, Australia",-37.8808999,144.758606
191,Seaholme,3018,City of Hobsons Bay,,,,,,,"Seaholme, VIC 3018, Australia",-37.8677992,144.8410816
192,South Kingsville,3015,City of Hobsons Bay,,,,,,,"South Kingsville, VIC 3015, Australia",-37.8306664,144.8713429
193,Williamstown,3016,City of Hobsons Bay,,,,,,,"Williamstown, VIC 3016, Australia",-37.8611788,144.8898569
194,Williamstown North,3016,City of Hobsons Bay,,,,,,,"Williamstown North, VIC 3016, Australia",-37.8526453,144.8688784
195,Attwood,3049,City of Hume,,,,,,,"Attwood, VIC 3049, Australia",-37.6670148,144.884862
196,Broadmeadows,3047,City of Hume,,,,,,,"Broadmeadows, VIC 3047, Australia",-37.68293875,144.919575351733
197,Campbellfield,3061,City of Hume,,,,,,,"Campbellfield, VIC 3061, Australia",-37.6641298,144.959583
198,Coolaroo,3048,City of Hume,,,,,,,"Coolaroo, VIC 3048, Australia",-37.6567594,144.9345853
199,Craigieburn,3064,City of Hume,,,,,,,"Craigieburn, VIC 3064, Australia",-37.5901421,144.9108265
200,Dallas,3047,City of Hume,,,,,,,"Dallas, VIC 3047, Australia",-37.6708194,144.9354163
201,Gladstone Park,3043,City of Hume,,,,,,,"Gladstone Park, VIC 3043, Australia",-37.6898311,144.8944658
202,Greenvale,3059,City of Hume,,,,,,,"Greenvale, VIC 3059, Australia",-37.6347658,144.8814617
203,Jacana,3047,City of Hume,,,,,,,"Jacana, VIC 3047, Australia",-37.6951482,144.9158281
204,Meadow Heights,3048,City of Hume,,,,,,,"Meadow Heights, VIC 3048, Australia",-37.6511668,144.9185521
205,Melbourne Airport,3045,City of Hume,,,,,,,"Melbourne Airport, VIC 3045, Australia",-37.67153775,144.851680260791
206,Roxburgh Park,3064,City of Hume,,,,,,,"Roxburgh Park, VIC 3064, Australia",-37.6258153,144.9255725
207,Somerton,3062,City of Hume,,,,,,,"Somerton, VIC 3062, Australia",-37.634688,144.9507961
208,Westmeadows,3049,City of Hume,,,,,,,"Westmeadows, VIC 3049, Australia",-37.6768765,144.8939017
209,Sunbury,3429,City of Hume,,,,,,,"Sunbury, VIC 3429, Australia",-37.5796938,144.7295281
210,Bulla,3428,City of Hume,,,,,,,"Bulla, VIC 3428, Australia",-37.6347957,144.8027227
211,Clarkefield,3430,City of Hume; Shire of Macedon Ranges,,,,,,,"Clarkefield, VIC 3430, Australia",-37.483466,144.7480489
212,Diggers Rest,3427,City of Hume; Shire of Melton,,,,,,,"Diggers Rest, VIC 3427, Australia",-37.6280256,144.720969
213,Kalkallo,3064,City of Hume,,,,,,,"Kalkallo, VIC 3064, Australia",-37.5309523,144.9496539
214,Mickleham,3064,City of Hume,,,,,,,"Mickleham, VIC 3064, Australia",-37.5616549,144.8773339
215,Oaklands Junction,3063,City of Hume,,,,,,,"Oaklands Junction, VIC 3063, Australia",-37.5916891,144.841268461542
216,Wildwood,3429,City of Hume,,,,,,,"Wildwood, VIC 3429, Australia",-37.55692655,144.799086801365
217,Yuroke,3063,City of Hume,,,,,,,"Yuroke, VIC 3063, Australia",-37.5894631,144.8789803
218,Aspendale,3195,City of Kingston,,,,,,,"Aspendale, VIC 3195, Australia",-38.0219105,145.1024159
219,Aspendale Gardens,3195,City of Kingston,,,,,,,"Aspendale Gardens, VIC 3195, Australia",-38.0221438,145.11984
220,Bonbeach,3196,City of Kingston,,,,,,,"Bonbeach, VIC 3196, Australia",-38.0630635,145.1276225
221,Braeside,3195,City of Kingston,,,,,,,"Braeside, VIC 3195, Australia",-38.0005245,145.1229578
222,Carrum,3197,City of Kingston,,,,,,,"Carrum, VIC 3197, Australia",-38.0767264,145.1280098
223,Chelsea,3196,City of Kingston,,,,,,,"Chelsea, VIC 3196, Australia",-38.0497386,145.121407
224,Chelsea Heights,3196,City of Kingston,,,,,,,"Chelsea Heights, VIC 3196, Australia",-38.0408403,145.1341354
225,Clarinda,3169,City of Kingston,,,,,,,"Clarinda, VIC 3169, Australia",-37.9431093,145.1060206
226,Clayton South,3169,City of Kingston,,,,,,,"Clayton South, VIC 3169, Australia",-37.9430924,145.125236
227,Dingley Village,3172,City of Kingston,,,,,,,"Dingley Village, VIC 3172, Australia",-37.9755762,145.1256478
228,Edithvale,3196,City of Kingston,,,,,,,"Edithvale, VIC 3196, Australia",-38.0375588,145.1149321
229,Heatherton,3202,City of Kingston,,,,,,,"Heatherton, VIC 3202, Australia",-37.9560844,145.0932067
230,Mentone,3194,City of Kingston,,,,,,,"Mentone, VIC 3194, Australia",-37.9813669,145.0689511
231,Moorabbin Airport,3194,City of Kingston,,,,,,,"Moorabbin Airport, VIC 3194, Australia",-37.9774618,145.0995297
232,Mordialloc,3195,City of Kingston,,,,,,,"Mordialloc, VIC 3195, Australia",-37.9993584,145.0960708
233,Parkdale,3195,City of Kingston,,,,,,,"Parkdale, VIC 3195, Australia",-37.9918673,145.081286
234,Patterson Lakes,3197,City of Kingston,,,,,,,"Patterson Lakes, VIC 3197, Australia",-38.0694493,145.1432329
235,Waterways,3195,City of Kingston,,,,,,,"Waterways, VIC 3195, Australia",-38.0147783,145.1305166
236,Bayswater,3153,City of Knox,,,,,,,"Bayswater, VIC 3153, Australia",-37.8454443,145.2647667
237,Boronia,3155,City of Knox,,,,,,,"Boronia, VIC 3155, Australia",-37.8563043,145.2859658
238,Ferntree Gully,3156,City of Knox,,,,,,,"Ferntree Gully, VIC 3156, Australia",-37.8840562,145.2817304
239,Knoxfield,3180,City of Knox,,,,,,,"Knoxfield, VIC 3180, Australia",-37.8897731,145.2496342
240,Lysterfield,3156,City of Knox (as a suburb); Shire of Yarra Ranges (as a rural locality),,,,,,,"Lysterfield, VIC 3156, Australia",-37.9348771,145.3017588
241,Rowville,3178,City of Knox,,,,,,,"Rowville, VIC 3178, Australia",-37.9188339,145.2367361
242,Scoresby,3179,City of Knox,,,,,,,"Scoresby, VIC 3179, Australia",-37.9025786,145.2183066
243,Sassafras,3787,City of Knox,,,,,,,"Sassafras, VIC 3787, Australia",-37.8678412,145.3568039
244,The Basin,3154,City of Knox,,,,,,,"The Basin, VIC 3154, Australia",-37.8556937,145.3214075
245,Upper Ferntree Gully,3156,City of Knox; Shire of Yarra Ranges,,,,,,,"Upper Ferntree Gully, VIC 3156, Australia",-37.8966917,145.3098755
246,Wantirna,3152,City of Knox,,,,,,,"Wantirna, VIC 3152, Australia",-37.8523357,145.2259721
247,Wantirna South,3152,City of Knox,,,,,,,"Wantirna South, VIC 3152, Australia",-37.8737902,145.2217475
248,Bulleen,3105,City of Manningham,,,,,,,"Bulleen, VIC 3105, Australia",-37.7688992,145.0871992
249,Doncaster,3108,City of Manningham,,,,,,,"Doncaster, VIC 3108, Australia",-37.7848299,145.1238431
250,Doncaster East,3109,City of Manningham,,,,,,,"Doncaster East, VIC 3109, Australia",-37.7788744,145.1638815
251,Donvale,3111,City of Manningham,,,,,,,"Donvale, VIC 3111, Australia",-37.7898094,145.1914915
252,Nunawading,3131,City of Manningham; City of Whitehorse,,,,,,,"Nunawading, VIC 3131, Australia",-37.8173756,145.1765308
253,Park Orchards,3114,City of Manningham,,,,,,,"Park Orchards, VIC 3114, Australia",-37.7769195,145.2146209
254,Ringwood North,3134,City of Manningham; City of Maroondah,,,,,,,"Ringwood North, VIC 3134, Australia",-37.7930324,145.2312313
255,Templestowe,3106,City of Manningham,,,,,,,"Templestowe, VIC 3106, Australia",-37.7540588,145.1486152
256,Templestowe Lower,3107,City of Manningham,,,,,,,"Templestowe Lower, VIC 3107, Australia",-37.7638749,145.1122762
257,Warrandyte,3113,City of Manningham,,,,,,,"Warrandyte, VIC 3113, Australia",-37.7585968,145.22762818933
258,Warrandyte South,3134,City of Manningham,,,,,,,"Warrandyte South, VIC 3134, Australia",-37.7610033,145.2373853
259,Wonga Park,3115,City of Manningham,,,,,,,"Wonga Park, VIC 3115, Australia",-37.7356804,145.269802
260,Braybrook,3019,City of Maribyrnong,,,,,,,"Braybrook, VIC 3019, Australia",-37.7867076,144.8548451
261,Footscray,3011,City of Maribyrnong,,,,,,,"Footscray, VIC 3011, Australia",-37.7981339,144.897345
262,Kingsville,3012,City of Maribyrnong,,,,,,,"Kingsville, VIC 3012, Australia",-37.8088622,144.8794356
263,Maidstone,3012,City of Maribyrnong,,,,,,,"Maidstone, VIC 3012, Australia",-37.7819337,144.8741606
264,Maribyrnong,3032,City of Maribyrnong,,,,,,,"Maribyrnong, VIC 3032, Australia",-37.7695144,144.8902049
265,Seddon,3011,City of Maribyrnong,,,,,,,"Seddon, VIC 3011, Australia",-37.8067725,144.8915967
266,Tottenham,3012,City of Maribyrnong,,,,,,,"Tottenham, VIC 3012, Australia",-37.8046977,144.8529354
267,West Footscray,3012,City of Maribyrnong,,,,,,,"West Footscray, VIC 3012, Australia",-37.8005584,144.8710808
268,Yarraville,3013,City of Maribyrnong,,,,,,,"Yarraville, VIC 3013, Australia",-37.8180051,144.8819389
269,Bayswater North,3153,City of Maroondah,,,,,,,"Bayswater North, VIC 3153, Australia",-37.8269747,145.2836847
270,Croydon,3136,City of Maroondah,,,,,,,"Croydon, VIC 3136, Australia",-37.795177,145.284447
271,Croydon Hills,3136,City of Maroondah,,,,,,,"Croydon Hills, VIC 3136, Australia",-37.7759541,145.2671081
272,Croydon North,3136,City of Maroondah,,,,,,,"Croydon North, VIC 3136, Australia",-37.7718843,145.2839524
273,Croydon South,3136,City of Maroondah,,,,,,,"Croydon South, VIC 3136, Australia",-37.8150135,145.2736124
274,Heathmont,3135,City of Maroondah,,,,,,,"Heathmont, VIC 3135, Australia",-37.8305406,145.2442572
275,Kilsyth,3137,City of Maroondah,,,,,,,"Kilsyth, VIC 3137, Australia",-37.8037844,145.3134593
276,Kilsyth South,3137,City of Maroondah,,,,,,,"Kilsyth South, VIC 3137, Australia",-37.8315054,145.3110008
277,Park Orchards,3114,City of Maroondah,,,,,,,"Park Orchards, VIC 3114, Australia",-37.7769195,145.2146209
278,Ringwood,3134,City of Maroondah,,,,,,,"Ringwood, VIC 3134, Australia",-37.8114765,145.2334151
279,Ringwood East,3135,City of Maroondah,,,,,,,"Ringwood East, VIC 3135, Australia",-37.8130808,145.2530126
280,Vermont,3133,City of Maroondah; City of Whitehorse,,,,,,,"Vermont, VIC 3133, Australia",-37.8384616,145.1993471
281,Warranwood,3134,City of Maroondah,,,,,,,"Warranwood, VIC 3134, Australia",-37.7725114,145.250157
282,Carlton,3053,City of Melbourne,,,,,,,"Carlton, VIC 3053, Australia",-37.8004228,144.9684343
283,Carlton North,3054,City of Melbourne; City of Yarra,,,,,,,"Carlton North, VIC 3054, Australia",-37.7845585,144.9728553
284,Docklands,3008,City of Melbourne,,,,,,,"Docklands, VIC 3008, Australia",-37.8175423,144.9394923
285,East Melbourne,3002,City of Melbourne,,,,,,,"East Melbourne, VIC 3002, Australia",-37.812498,144.9858851
286,Flemington,3031,City of Melbourne; City of Moonee Valley,,,,,,,"Flemington, VIC 3031, Australia",-37.7867587,144.9193668
287,Kensington,3031,City of Melbourne,,,,,,,"Kensington, VIC 3031, Australia",-37.7943554,144.9270487
288,Melbourne CBD,3000,City of Melbourne,,,,,,,"Melbourne CBD, VIC 3000, Australia",-37.8141823,144.9598007
289,Melbourne CBD (St Kilda Road area),3004,"City of Melbourne (east side to High Street, Prahran); City of Port Phillip (west side and road south of High Street, Prahran)",,,,,,,"Melbourne CBD (St Kilda Road area), VIC 3004, Australia",0.0,0.0
290,North Melbourne,3051,City of Melbourne; City of Moonee Valley,,,,,,,"North Melbourne, VIC 3051, Australia",-37.7985747,144.9451741
291,Parkville,3052,City of Melbourne,,,,,,,"Parkville, VIC 3052, Australia",-37.7871148,144.9515533
292,Port Melbourne,3207,City of Melbourne; City of Port Phillip,,,,,,,"Port Melbourne, VIC 3207, Australia",-37.8333613,144.9219203
293,Southbank,3006,City of Melbourne; City of Port Phillip,,,,,,,"Southbank, VIC 3006, Australia",-37.8253618,144.9640203
294,South Wharf,3006,City of Melbourne; City of Port Phillip,,,,,,,"South Wharf, VIC 3006, Australia",-37.8253279,144.9493432
295,South Yarra,3141,City of Melbourne; City of Stonnington,,,,,,,"South Yarra, VIC 3141, Australia",-37.8377695,144.9918537
296,West Melbourne,3003,City of Melbourne,,,,,,,"West Melbourne, VIC 3003, Australia",-37.81044755,144.920429793501
297,Aintree,3336,City of Melton,,,,,,,"Aintree, VIC 3336, Australia",-37.7193933,144.6694023
298,Bonnie Brook,3335,City of Melton,,,,,,,"Bonnie Brook, VIC 3335, Australia",-37.70020195,144.676600098116
299,Brookfield,3338,City of Melton,,,,,,,"Brookfield, VIC 3338, Australia",-37.6993389,144.5405513
300,Burnside,3023,City of Melton,,,,,,,"Burnside, VIC 3023, Australia",-37.749374,144.753027
301,Burnside Heights,3023,City of Melton,,,,,,,"Burnside Heights, VIC 3023, Australia",-37.7324225,144.7555804
302,Caroline Springs,3023,City of Melton,,,,,,,"Caroline Springs, VIC 3023, Australia",-37.7345608,144.7371975
303,Cobblebank,3338,City of Melton,,,,,,,"Cobblebank, VIC 3338, Australia",-37.7063004,144.6025657
304,Deanside,3336,City of Melton,,,,,,,"Deanside, VIC 3336, Australia",-37.727933,144.7046475
305,Exford,3338,City of Melton,,,,,,,"Exford, VIC 3338, Australia",-37.7288883,144.542927959977
306,Eynesbury,3338,City of Melton; City of Wyndham,,,,,,,"Eynesbury, VIC 3338, Australia",-37.7908381,144.5561657
307,Fieldstone,3024,City of Melton,,,,,,,"Fieldstone, VIC 3024, Australia",-37.7498668,144.6482563
308,Fraser Rise,3336,City of Melton,,,,,,,"Fraser Rise, VIC 3336, Australia",-37.7059863,144.7174013
309,Grangefields,3335,City of Melton,,,,,,,"Grangefields, VIC 3335, Australia",-37.7000297,144.6351268
310,Harkness,3337,City of Melton,,,,,,,"Harkness, VIC 3337, Australia",-37.6567808,144.5525264
311,Kurunjang,3337,City of Melton,,,,,,,"Kurunjang, VIC 3337, Australia",-37.6626777,144.5914403
312,Melton,3337,City of Melton,,,,,,,"Melton, VIC 3337, Australia",-37.6835714,144.5828446
313,Melton South,3338,City of Melton,,,,,,,"Melton South, VIC 3338, Australia",-37.7060279,144.5717723
314,Melton West,3337,City of Melton,,,,,,,"Melton West, VIC 3337, Australia",-37.6798651,144.5528895
315,Mount Cottrell,3024,City of Melton; City of Wyndham,,,,,,,"Mount Cottrell, VIC 3024, Australia",-37.76249,144.62283
316,Parwan,3340,City of Melton; Shire of Moorabool,,,,,,,"Parwan, VIC 3340, Australia",-37.7356769,144.469479215503
317,Plumpton,3335,City of Melton,,,,,,,"Plumpton, VIC 3335, Australia",-37.6727808,144.6993618
318,Ravenhall,3023,City of Melton,,,,,,,"Ravenhall, VIC 3023, Australia",-37.7754956,144.7366326
319,Rockbank,3335,City of Melton,,,,,,,"Rockbank, VIC 3335, Australia",-37.7312767,144.6607316
320,Strathtulloh,3338,City of Melton,,,,,,,"Strathtulloh, VIC 3338, Australia",-37.7324394,144.5975017
321,Taylors Hill,3037,City of Melton,,,,,,,"Taylors Hill, VIC 3037, Australia",-37.7152241,144.7533127
322,Thornhill Park,3335,City of Melton,,,,,,,"Thornhill Park, VIC 3335, Australia",-37.7274099,144.6259215
323,Toolern Vale,3337,City of Melton,,,,,,,"Toolern Vale, VIC 3337, Australia",-37.6026268,144.584952550434
324,Truganina,3029,City of Melton; City of Wyndham,,,,,,,"Truganina, VIC 3029, Australia",-37.8089015,144.721139
325,Weir Views,3338,City of Melton,,,,,,,"Weir Views, VIC 3338, Australia",-37.7323715,144.5708942
326,Ashwood,3147,City of Monash,,,,,,,"Ashwood, VIC 3147, Australia",-37.866672,145.1022346
327,Burwood,3125,City of Monash; City of Whitehorse,,,,,,,"Burwood, VIC 3125, Australia",-37.85565995,145.09844123094
328,Chadstone,3148,City of Monash,,,,,,,"Chadstone, VIC 3148, Australia",-37.8822799,145.1001365
329,Clayton,3168,City of Monash,,,,,,,"Clayton, VIC 3168, Australia",-37.9173212,145.1304242
330,Glen Waverley,3150,City of Monash,,,,,,,"Glen Waverley, VIC 3150, Australia",-37.8816255,145.1681838
331,Hughesdale,3166,City of Monash,,,,,,,"Hughesdale, VIC 3166, Australia",-37.8995028,145.0811583
332,Huntingdale,3166,City of Monash,,,,,,,"Huntingdale, VIC 3166, Australia",-37.9076585,145.1084736
333,Monash University,3800,City of Monash,,,,,,,"Monash University, VIC 3800, Australia",-37.9011951,145.130584919767
334,Mount Waverley,3149,City of Monash,,,,,,,"Mount Waverley, VIC 3149, Australia",-37.8783923,145.1284919
335,Mulgrave,3170,City of Monash,,,,,,,"Mulgrave, VIC 3170, Australia",-37.9319869,145.18179881096
336,Notting Hill,3168,City of Monash,,,,,,,"Notting Hill, VIC 3168, Australia",-37.905582,145.1455616
337,Oakleigh,3166,City of Monash,,,,,,,"Oakleigh, VIC 3166, Australia",-37.9066691,145.111258439223
338,Oakleigh East,3166,City of Monash,,,,,,,"Oakleigh East, VIC 3166, Australia",-37.9039215,145.1153403
339,Oakleigh South,3167,City of Monash,,,,,,,"Oakleigh South, VIC 3167, Australia",-37.9248257,145.0921745
340,Wheelers Hill,3150,City of Monash,,,,,,,"Wheelers Hill, VIC 3150, Australia",-37.9103266,145.1895175
341,Aberfeldie,3040,City of Moonee Valley,,,,,,,"Aberfeldie, VIC 3040, Australia",-37.7596196,144.8974571
342,Airport West,3042,City of Moonee Valley,,,,,,,"Airport West, VIC 3042, Australia",-37.7222576,144.8834942
343,Ascot Vale,3032,City of Moonee Valley,,,,,,,"Ascot Vale, VIC 3032, Australia",-37.7769563,144.9137235
344,Avondale Heights,3034,City of Moonee Valley,,,,,,,"Avondale Heights, VIC 3034, Australia",-37.7614537,144.862141
345,Essendon,3040,City of Moonee Valley,,,,,,,"Essendon, VIC 3040, Australia",-37.74945485,144.913193712624
346,Essendon Fields,3041,City of Moonee Valley,,,,,,,"Essendon Fields, VIC 3041, Australia",-37.7269212,144.9004134
347,Essendon North,3041,City of Moonee Valley,,,,,,,"Essendon North, VIC 3041, Australia",-37.7384762,144.9012027
348,Essendon West,3040,City of Moonee Valley,,,,,,,"Essendon West, VIC 3040, Australia",-37.75464,144.883441718625
349,Moonee Ponds,3039,City of Moonee Valley,,,,,,,"Moonee Ponds, VIC 3039, Australia",-37.765575,144.9212864
350,Niddrie,3042,City of Moonee Valley,,,,,,,"Niddrie, VIC 3042, Australia",-37.7397699,144.8847881
351,Strathmore,3041,City of Moonee Valley,,,,,,,"Strathmore, VIC 3041, Australia",-37.7333202,144.9182433
352,Strathmore Heights,3041,City of Moonee Valley,,,,,,,"Strathmore Heights, VIC 3041, Australia",-37.7133663,144.8969057
353,Travancore,3032,City of Moonee Valley,,,,,,,"Travancore, VIC 3032, Australia",-37.7807553,144.935503
354,Brunswick,3056,City of Moreland,,,,,,,"Brunswick, VIC 3056, Australia",-37.7664715,144.9613103
355,Brunswick East,3057,City of Moreland,,,,,,,"Brunswick East, VIC 3057, Australia",-37.7688802,144.9776825
356,Brunswick West,3055,City of Moreland,,,,,,,"Brunswick West, VIC 3055, Australia",-37.7633334,144.9425563
357,Coburg,3058,City of Moreland,,,,,,,"Coburg, VIC 3058, Australia",-37.7449752,144.9643314
358,Coburg North,3058,City of Moreland,,,,,,,"Coburg North, VIC 3058, Australia",-37.7243394,144.9675896
359,Fawkner,3060,City of Moreland,,,,,,,"Fawkner, VIC 3060, Australia",-37.7052065,144.9696144
360,Glenroy,3046,City of Moreland,,,,,,,"Glenroy, VIC 3046, Australia",-37.7028199,144.9275403
361,Gowanbrae,3043,City of Moreland,,,,,,,"Gowanbrae, VIC 3043, Australia",-37.7027183,144.8975976
362,Hadfield,3046,City of Moreland,,,,,,,"Hadfield, VIC 3046, Australia",-37.7101582,144.9502764
363,Oak Park,3046,City of Moreland,,,,,,,"Oak Park, VIC 3046, Australia",-37.7181626,144.9189712
364,Pascoe Vale,3044,City of Moreland,,,,,,,"Pascoe Vale, VIC 3044, Australia",-37.7250777,144.9379604
365,Pascoe Vale South,3044,City of Moreland,,,,,,,"Pascoe Vale South, VIC 3044, Australia",-37.7434265,144.9384767
366,Blairgowrie,3942,Shire of Mornington Peninsula (adjacent to Port Phillip),,,,,,,"Blairgowrie, VIC 3942, Australia",-38.3687445,144.7722682
367,Capel Sound,3940,Shire of Mornington Peninsula (adjacent to Port Phillip),,,,,,,"Capel Sound, VIC 3940, Australia",-38.3737241,144.8755654
368,Dromana,3936,Shire of Mornington Peninsula (adjacent to Port Phillip),,,,,,,"Dromana, VIC 3936, Australia",-38.3418285,144.9655838
369,McCrae,3938,Shire of Mornington Peninsula (adjacent to Port Phillip),,,,,,,"McCrae, VIC 3938, Australia",-38.3599791,144.9338501
370,Mornington,3931,Shire of Mornington Peninsula (adjacent to Port Phillip),,,,,,,"Mornington, VIC 3931, Australia",-33.15379,115.929
371,Mount Eliza,3930,Shire of Mornington Peninsula (adjacent to Port Phillip),,,,,,,"Mount Eliza, VIC 3930, Australia",-38.19381,145.095732088415
372,Mount Martha,3934,Shire of Mornington Peninsula (adjacent to Port Phillip),,,,,,,"Mount Martha, VIC 3934, Australia",-38.2754676,145.0307737
373,Portsea,3944,Shire of Mornington Peninsula (adjacent to Port Phillip),,,,,,,"Portsea, VIC 3944, Australia",-38.3228212,144.7004208
374,Rosebud,3939,Shire of Mornington Peninsula (adjacent to Port Phillip),,,,,,,"Rosebud, VIC 3939, Australia",-38.3710325,144.9095115
375,Rye,3941,Shire of Mornington Peninsula (adjacent to Port Phillip),,,,,,,"Rye, VIC 3941, Australia",-38.3821684,144.8099264
376,Safety Beach,3936,Shire of Mornington Peninsula (adjacent to Port Phillip),,,,,,,"Safety Beach, VIC 3936, Australia",-38.3153642,145.000282
377,St Andrews Beach,3941,Shire of Mornington Peninsula (adjacent to Port Phillip),,,,,,,"St Andrews Beach, VIC 3941, Australia",-38.4199773,144.83117
378,Sorrento,3943,Shire of Mornington Peninsula (adjacent to Port Phillip),,,,,,,"Sorrento, VIC 3943, Australia",-38.3447273,144.7420938
379,Tootgarook,3941,Shire of Mornington Peninsula (adjacent to Port Phillip),,,,,,,"Tootgarook, VIC 3941, Australia",-38.3777277,144.8502239
380,Bittern,3918,Shire of Mornington Peninsula (adjacent to Western Port),,,,,,,"Bittern, VIC 3918, Australia",-38.3375798,145.1773289
381,Crib Point,3919,Shire of Mornington Peninsula (adjacent to Western Port),,,,,,,"Crib Point, VIC 3919, Australia",-38.3523582,145.2029503
382,Hastings,3915,Shire of Mornington Peninsula (adjacent to Western Port),,,,,,,"Hastings, VIC 3915, Australia",-38.307488,145.1902003
383,Somerville,3912,Shire of Mornington Peninsula (adjacent to Western Port),,,,,,,"Somerville, VIC 3912, Australia",-38.2254039,145.1736692
384,Tyabb,3913,Shire of Mornington Peninsula (adjacent to Western Port),,,,,,,"Tyabb, VIC 3913, Australia",-38.2637008,145.1871641
385,Arthurs Seat,3936,Shire of Mornington Peninsula,,,,,,,"Arthurs Seat, VIC 3936, Australia",-38.36077,144.959730916163
386,Balnarring,3926,Shire of Mornington Peninsula,,,,,,,"Balnarring, VIC 3926, Australia",-38.35716,145.12594484191
387,Balnarring Beach,3926,Shire of Mornington Peninsula,,,,,,,"Balnarring Beach, VIC 3926, Australia",-38.395945,145.113191146907
388,Baxter,3911,Shire of Mornington Peninsula,,,,,,,"Baxter, VIC 3911, Australia",-38.2010079,145.1568582
389,Boneo,3939,Shire of Mornington Peninsula,,,,,,,"Boneo, VIC 3939, Australia",-38.439545,144.903913613841
390,Cape Schanck,3939,Shire of Mornington Peninsula,,,,,,,"Cape Schanck, VIC 3939, Australia",-38.466205,144.889216244444
391,Fingal,3939,Shire of Mornington Peninsula,,,,,,,"Fingal, VIC 3939, Australia",-38.418955,144.859891004844
392,Flinders,3929,Shire of Mornington Peninsula,,,,,,,"Flinders, VIC 3929, Australia",-38.45564,144.985139639175
393,HMAS Cerberus,3920,Shire of Mornington Peninsula,,,,,,,"HMAS Cerberus, VIC 3920, Australia",-38.382085,145.194820337715
394,Main Ridge,3928,Shire of Mornington Peninsula,,,,,,,"Main Ridge, VIC 3928, Australia",-38.40234,144.965533868726
395,Merricks,3916,Shire of Mornington Peninsula,,,,,,,"Merricks, VIC 3916, Australia",-38.3998558,145.0986775
396,Merricks Beach,3926,Shire of Mornington Peninsula,,,,,,,"Merricks Beach, VIC 3926, Australia",-38.3998558,145.0986775
397,Merricks North,3926,Shire of Mornington Peninsula,,,,,,,"Merricks North, VIC 3926, Australia",-38.34129,145.071874766734
398,Moorooduc,3933,Shire of Mornington Peninsula,,,,,,,"Moorooduc, VIC 3933, Australia",-38.245685,145.11613426233
399,Point Leo,3916,Shire of Mornington Peninsula,,,,,,,"Point Leo, VIC 3916, Australia",-38.4190327,145.0752586
400,Red Hill,3937,Shire of Mornington Peninsula,,,,,,,"Red Hill, VIC 3937, Australia",-38.3799499,145.0264267
401,Red Hill South,3937,Shire of Mornington Peninsula,,,,,,,"Red Hill South, VIC 3937, Australia",-38.40638,145.029194632565
402,Shoreham,3916,Shire of Mornington Peninsula,,,,,,,"Shoreham, VIC 3916, Australia",-38.4247467,145.0554939
403,Somers,3927,Shire of Mornington Peninsula,,,,,,,"Somers, VIC 3927, Australia",-38.3923474,145.1726499
404,Tuerong,3915,Shire of Mornington Peninsula,,,,,,,"Tuerong, VIC 3915, Australia",-38.297585,145.091226149873
405,Diamond Creek,3089,Shire of Nillumbik,,,,,,,"Diamond Creek, VIC 3089, Australia",-37.6760643,145.1524368
406,Hurstbridge,3099,Shire of Nillumbik,,,,,,,"Hurstbridge, VIC 3099, Australia",-37.6375848,145.1943394
407,North Warrandyte,3113,Shire of Nillumbik,,,,,,,"North Warrandyte, VIC 3113, Australia",-37.7258538,145.2155463
408,Research,3095,Shire of Nillumbik,,,,,,,"Research, VIC 3095, Australia",-37.7066557,145.189067
409,Wattle Glen,3096,Shire of Nillumbik,,,,,,,"Wattle Glen, VIC 3096, Australia",-37.6699452,145.1916231
410,Bend of Islands,3097,Shire of Nillumbik,,,,,,,"Bend of Islands, VIC 3097, Australia",-37.700485,145.2777398125
411,Christmas Hills,3775,Shire of Nillumbik,,,,,,,"Christmas Hills, VIC 3775, Australia",-37.65814,145.307188707865
412,Cottles Bridge,3099,Shire of Nillumbik,,,,,,,"Cottles Bridge, VIC 3099, Australia",-37.6234258,145.2175327
413,Doreen,3754,Shire of Nillumbik (as a rural locality); City of Whittlesea (as a suburb),,,,,,,"Doreen, VIC 3754, Australia",-37.5963874,145.1428928
414,Kangaroo Ground,3097,Shire of Nillumbik,,,,,,,"Kangaroo Ground, VIC 3097, Australia",-37.6918649,145.2158904
415,Kinglake,3763,Shire of Nillumbik; Shire of Murrindindi,,,,,,,"Kinglake, VIC 3763, Australia",-37.5327424,145.341131
416,Kinglake West,3778,Shire of Nillumbik; Shire of Murrindindi; City of Whittlesea,,,,,,,"Kinglake West, VIC 3778, Australia",-37.4778011,145.255932344565
417,Nutfield,3099,Shire of Nillumbik,,,,,,,"Nutfield, VIC 3099, Australia",-37.6091125,145.1829249
418,Panton Hill,3759,Shire of Nillumbik,,,,,,,"Panton Hill, VIC 3759, Australia",-37.6413636,145.2390413
419,Plenty,3090,Shire of Nillumbik,,,,,,,"Plenty, VIC 3090, Australia",-37.6674499,145.1123773
420,St Andrews,3761,Shire of Nillumbik,,,,,,,"St Andrews, VIC 3761, Australia",-37.57944,145.28584035
421,Smiths Gully,3760,Shire of Nillumbik,,,,,,,"Smiths Gully, VIC 3760, Australia",-37.6041172,145.2678984
422,Strathewen,3099,Shire of Nillumbik,,,,,,,"Strathewen, VIC 3099, Australia",-37.5478739,145.2691533
423,Toolangi,3777,Shire of Nillumbik,,,,,,,"Toolangi, VIC 3777, Australia",-37.5333775,145.4672481
424,Watsons Creek,3097,Shire of Nillumbik,,,,,,,"Watsons Creek, VIC 3097, Australia",-37.6703909,145.2567324
425,Yan Yean,3755,Shire of Nillumbik; City of Whittlesea,,,,,,,"Yan Yean, VIC 3755, Australia",-37.569134,145.107832
426,Yarrambat,3091,Shire of Nillumbik,,,,,,,"Yarrambat, VIC 3091, Australia",-37.6375473,145.1349293
427,Albert Park,3206,City of Port Phillip,,,,,,,"Albert Park, VIC 3206, Australia",-37.8452062,144.957105
428,Balaclava,3183,City of Port Phillip,,,,,,,"Balaclava, VIC 3183, Australia",-37.8702943,144.9947414
429,Elwood,3184,City of Port Phillip,,,,,,,"Elwood, VIC 3184, Australia",-37.8788568,144.9855487
430,Middle Park,3206,City of Port Phillip,,,,,,,"Middle Park, VIC 3206, Australia",-37.8511511,144.9620399
431,Ripponlea,3185,City of Port Phillip,,,,,,,"Ripponlea, VIC 3185, Australia",-37.8777978,144.9952778
432,St Kilda,3182,City of Port Phillip,,,,,,,"St Kilda, VIC 3182, Australia",-37.8638261,144.981637
433,St Kilda West,3182,City of Port Phillip,,,,,,,"St Kilda West, VIC 3182, Australia",-37.8579958,144.9712452
434,South Melbourne,3205,City of Port Phillip,,,,,,,"South Melbourne, VIC 3205, Australia",-37.8334603,144.9570188
435,Armadale,3143,City of Stonnington,,,,,,,"Armadale, VIC 3143, Australia",-37.8567619,145.0206905
436,Kooyong,3144,City of Stonnington,,,,,,,"Kooyong, VIC 3144, Australia",-37.841394,145.0358402
437,Malvern,3144,City of Stonnington,,,,,,,"Malvern, VIC 3144, Australia",-37.8576088,145.0350666
438,Malvern East,3145,City of Stonnington,,,,,,,"Malvern East, VIC 3145, Australia",-37.876835,145.0658739
439,Prahran,3181,City of Stonnington,,,,,,,"Prahran, VIC 3181, Australia",-37.8478,145.0
440,Toorak,3142,City of Stonnington,,,,,,,"Toorak, VIC 3142, Australia",-37.8416141,145.0176215
441,Windsor,3181,City of Stonnington,,,,,,,"Windsor, VIC 3181, Australia",-37.8545227,144.9921665
442,Blackburn,3130,City of Whitehorse,,,,,,,"Blackburn, VIC 3130, Australia",-37.8217009,145.152276
443,Blackburn North,3130,City of Whitehorse,,,,,,,"Blackburn North, VIC 3130, Australia",-37.8053801,145.154324
444,Blackburn South,3130,City of Whitehorse,,,,,,,"Blackburn South, VIC 3130, Australia",-37.8388322,145.1487848
445,Box Hill,3128,City of Whitehorse,,,,,,,"Box Hill, VIC 3128, Australia",-37.8215116,145.1261267
446,Box Hill North,3129,City of Whitehorse,,,,,,,"Box Hill North, VIC 3129, Australia",-37.8056831,145.1295748
447,Box Hill South,3128,City of Whitehorse,,,,,,,"Box Hill South, VIC 3128, Australia",-37.8366236,145.1233644
448,Burwood East,3151,City of Whitehorse,,,,,,,"Burwood East, VIC 3151, Australia",-37.8535935,145.150423
449,Forest Hill,3131,City of Whitehorse,,,,,,,"Forest Hill, VIC 3131, Australia",-37.8362738,145.1690911
450,Mitcham,3132,City of Whitehorse,,,,,,,"Mitcham, VIC 3132, Australia",-37.818192,145.1990212
451,Vermont,3133,City of Whitehorse,,,,,,,"Vermont, VIC 3133, Australia",-37.8384616,145.1993471
452,Vermont South,3133,City of Whitehorse,,,,,,,"Vermont South, VIC 3133, Australia",-37.854386,145.1878065
453,Epping,3076,City of Whittlesea,,,,,,,"Epping, VIC 3076, Australia",-37.639111,145.0266224
454,Lalor,3075,City of Whittlesea,,,,,,,"Lalor, VIC 3075, Australia",-37.66582655,145.017278589908
455,Mernda,3754,City of Whittlesea,,,,,,,"Mernda, VIC 3754, Australia",-37.6027435,145.1008348
456,Mill Park,3082,City of Whittlesea,,,,,,,"Mill Park, VIC 3082, Australia",-37.6641334,145.0642681
457,South Morang,3752,City of Whittlesea,,,,,,,"South Morang, VIC 3752, Australia",-37.6316767,145.0836353
458,Thomastown,3074,City of Whittlesea,,,,,,,"Thomastown, VIC 3074, Australia",-37.6805616,145.014410295635
459,Beveridge,3753,City of Whittlesea; Shire of Mitchell,,,,,,,"Beveridge, VIC 3753, Australia",-37.4712651,144.9745663
460,Eden Park,3757,City of Whittlesea,,,,,,,"Eden Park, VIC 3757, Australia",-37.48874,145.066544844465
461,Humevale,3757,City of Whittlesea,,,,,,,"Humevale, VIC 3757, Australia",-37.50613,145.192174078888
462,Whittlesea,3757,City of Whittlesea,,,,,,,"Whittlesea, VIC 3757, Australia",-37.5121301,145.1177321
463,Wollert,3750,City of Whittlesea,,,,,,,"Wollert, VIC 3750, Australia",-37.5939889,145.0337333
464,Woodstock,3755,City of Whittlesea,,,,,,,"Woodstock, VIC 3755, Australia",-37.5460487,145.054426593234
465,Hoppers Crossing,3029,City of Wyndham,,,,,,,"Hoppers Crossing, VIC 3029, Australia",-37.8665704,144.6949625
466,Laverton North,3026,City of Wyndham,,,,,,,"Laverton North, VIC 3026, Australia",-37.8300705,144.7869487
467,Manor Lakes,3024,City of Wyndham,,,,,,,"Manor Lakes, VIC 3024, Australia",-37.8686285,144.5950127
468,Point Cook,3030,City of Wyndham,,,,,,,"Point Cook, VIC 3030, Australia",-37.9064862,144.7533059
469,Tarneit,3029,City of Wyndham,,,,,,,"Tarneit, VIC 3029, Australia",-37.83833625,144.703855735685
470,Werribee,3030,City of Wyndham,,,,,,,"Werribee, VIC 3030, Australia",-37.9008141,144.6616976
471,Werribee South,3030,City of Wyndham,,,,,,,"Werribee South, VIC 3030, Australia",-37.9734648,144.6922245
472,Williams Landing,3027,City of Wyndham,,,,,,,"Williams Landing, VIC 3027, Australia",-37.8614297,144.7445428
473,Wyndham Vale,3024,City of Wyndham,,,,,,,"Wyndham Vale, VIC 3024, Australia",-37.8722432,144.6084185
474,Cocoroc,3030,City of Wyndham,,,,,,,"Cocoroc, VIC 3030, Australia",-37.9748784,144.6286793
475,Little River,3211,City of Wyndham; City of Greater Geelong,,,,,,,"Little River, VIC 3211, Australia",-37.9390807,144.4789406
476,Mambourin,3024,City of Wyndham,,,,,,,"Mambourin, VIC 3024, Australia",-37.8996767,144.554854
477,Quandong,3340,City of Wyndham,,,,,,,"Quandong, VIC 3340, Australia",-37.8388844,144.5538125
478,Abbotsford,3067,City of Yarra,,,,,,,"Abbotsford, VIC 3067, Australia",-37.8045508,144.9988542
479,Burnley,3121,City of Yarra,,,,,,,"Burnley, VIC 3121, Australia",-37.8296132,145.0175294
480,Clifton Hill,3068,City of Yarra,,,,,,,"Clifton Hill, VIC 3068, Australia",-37.7904385,144.9975371
481,Collingwood,3066,City of Yarra,,,,,,,"Collingwood, VIC 3066, Australia",-37.802104,144.9881387
482,Cremorne,3121,City of Yarra,,,,,,,"Cremorne, VIC 3121, Australia",-37.8290227,144.9927735
483,Fitzroy,3065,City of Yarra,,,,,,,"Fitzroy, VIC 3065, Australia",-37.8010382,144.9792611
484,Fitzroy North,3068,City of Yarra,,,,,,,"Fitzroy North, VIC 3068, Australia",-37.7833316,144.9837074
485,Princes Hill,3054,City of Yarra,,,,,,,"Princes Hill, VIC 3054, Australia",-37.7818041,144.9665675
486,Richmond,3121,City of Yarra,,,,,,,"Richmond, VIC 3121, Australia",-37.8203955,145.0025153
487,Belgrave,3160,Shire of Yarra Ranges,,,,,,,"Belgrave, VIC 3160, Australia",-37.91104835,145.353691475376
488,Belgrave Heights,3160,Shire of Yarra Ranges,,,,,,,"Belgrave Heights, VIC 3160, Australia",-37.9266116,145.3525247
489,Belgrave South,3160,Shire of Yarra Ranges,,,,,,,"Belgrave South, VIC 3160, Australia",-37.9424023,145.3573383
490,Chirnside Park,3116,Shire of Yarra Ranges,,,,,,,"Chirnside Park, VIC 3116, Australia",-37.7385835,145.3143181
491,Kilsyth,3137,Shire of Yarra Ranges,,,,,,,"Kilsyth, VIC 3137, Australia",-37.8037844,145.3134593
492,Lilydale,3140,Shire of Yarra Ranges,,,,,,,"Lilydale, VIC 3140, Australia",-37.7576639,145.352405
493,Montrose,3765,Shire of Yarra Ranges,,,,,,,"Montrose, VIC 3765, Australia",-37.81068,145.350850076404
494,Mooroolbark,3138,Shire of Yarra Ranges,,,,,,,"Mooroolbark, VIC 3138, Australia",-37.7813447,145.3256732
495,Mount Evelyn,3796,Shire of Yarra Ranges,,,,,,,"Mount Evelyn, VIC 3796, Australia",-25.50419,121.7492
496,Selby,3159,Shire of Yarra Ranges,,,,,,,"Selby, VIC 3159, Australia",-37.9187608,145.3784097
497,Tecoma,3160,Shire of Yarra Ranges,,,,,,,"Tecoma, VIC 3160, Australia",-37.9030367,145.3446796
498,Upwey,3158,Shire of Yarra Ranges,,,,,,,"Upwey, VIC 3158, Australia",-37.9036086,145.3313506
499,Badger Creek,3777,Shire of Yarra Ranges,,,,,,,"Badger Creek, VIC 3777, Australia",-37.6821729,145.5354699
500,Beenak,3139,Shire of Yarra Ranges,,,,,,,"Beenak, VIC 3139, Australia",-37.8087592,145.5024531
501,Big Pats Creek,3799,Shire of Yarra Ranges,,,,,,,"Big Pats Creek, VIC 3799, Australia",-37.7646858,145.750752
502,Cambarville,3779,Shire of Yarra Ranges,,,,,,,"Cambarville, VIC 3779, Australia",-37.55817,145.8874417
503,Chum Creek,3777,Shire of Yarra Ranges,,,,,,,"Chum Creek, VIC 3777, Australia",-37.6364618,145.5188488
504,Coldstream,3770,Shire of Yarra Ranges,,,,,,,"Coldstream, VIC 3770, Australia",-35.16408045,149.139202159204
505,Dixons Creek,3775,Shire of Yarra Ranges,,,,,,,"Dixons Creek, VIC 3775, Australia",-37.6387012,145.3978013
506,Don Valley,3139,Shire of Yarra Ranges,,,,,,,"Don Valley, VIC 3139, Australia",-37.7608659,145.5868732
507,Fernshaw,3778,Shire of Yarra Ranges,,,,,,,"Fernshaw, VIC 3778, Australia",-37.5762973,144.7145654
508,Ferny Creek,3786,Shire of Yarra Ranges,,,,,,,"Ferny Creek, VIC 3786, Australia",-37.8821539,145.3353111
509,Gilderoy,3797,Shire of Yarra Ranges,,,,,,,"Gilderoy, VIC 3797, Australia",-37.8547073,145.7128179
510,Gladysdale,3797,Shire of Yarra Ranges,,,,,,,"Gladysdale, VIC 3797, Australia",-37.84282725,145.635089993066
511,Gruyere,3770,Shire of Yarra Ranges,,,,,,,"Gruyere, VIC 3770, Australia",-37.72896,145.46342348646
512,Healesville,3777,Shire of Yarra Ranges,,,,,,,"Healesville, VIC 3777, Australia",-37.6537218,145.5161533
513,Hoddles Creek,3139,Shire of Yarra Ranges,,,,,,,"Hoddles Creek, VIC 3139, Australia",-37.7820199,145.5759957
514,Kallista,3791,Shire of Yarra Ranges,,,,,,,"Kallista, VIC 3791, Australia",-37.8858076,145.3729123
515,Kalorama,3766,Shire of Yarra Ranges,,,,,,,"Kalorama, VIC 3766, Australia",-37.8194174,145.372162
516,Launching Place,3139,Shire of Yarra Ranges,,,,,,,"Launching Place, VIC 3139, Australia",-37.7806769,145.5691921
517,Macclesfield,3782,Shire of Yarra Ranges,,,,,,,"Macclesfield, VIC 3782, Australia",-37.881875,145.489884851485
518,McMahons Creek,3799,Shire of Yarra Ranges,,,,,,,"McMahons Creek, VIC 3799, Australia",-37.676665,145.970242595986
519,Matlock,3723,Shire of Yarra Ranges; Shire of Mansfield,,,,,,,"Matlock, VIC 3723, Australia",-37.598542,146.2077112
520,Millgrove,3799,Shire of Yarra Ranges,,,,,,,"Millgrove, VIC 3799, Australia",-37.7515012,145.6612026
521,Monbulk,3793,Shire of Yarra Ranges,,,,,,,"Monbulk, VIC 3793, Australia",-37.8741771,145.4286024
522,Mount Dandenong,3767,Shire of Yarra Ranges,,,,,,,"Mount Dandenong, VIC 3767, Australia",-37.8291766,145.3538837
523,Mount Toolebewong,3777,Shire of Yarra Ranges,,,,,,,"Mount Toolebewong, VIC 3777, Australia",0.0,0.0
524,Narre Warren East,3804,Shire of Yarra Ranges,,,,,,,"Narre Warren East, VIC 3804, Australia",-37.96297925,145.358052706164
525,Olinda,3788,Shire of Yarra Ranges,,,,,,,"Olinda, VIC 3788, Australia",-37.843742,145.3855733
526,Powelltown,3797,Shire of Yarra Ranges,,,,,,,"Powelltown, VIC 3797, Australia",-37.8630657,145.7514607
527,Reefton,3799,Shire of Yarra Ranges,,,,,,,"Reefton, VIC 3799, Australia",-37.7012226,145.831458
528,Sassafras,3787,Shire of Yarra Ranges,,,,,,,"Sassafras, VIC 3787, Australia",-37.8678412,145.3568039
529,Seville,3139,Shire of Yarra Ranges,,,,,,,"Seville, VIC 3139, Australia",-37.7782042,145.4594001
530,Seville East,3139,Shire of Yarra Ranges,,,,,,,"Seville East, VIC 3139, Australia",-37.7743,145.4988109
531,Sherbrooke,3789,Shire of Yarra Ranges,,,,,,,"Sherbrooke, VIC 3789, Australia",-37.8872461,145.3520043
532,Silvan,3795,Shire of Yarra Ranges,,,,,,,"Silvan, VIC 3795, Australia",-37.8291,145.437765047924
533,Steels Creek,3775,Shire of Yarra Ranges,,,,,,,"Steels Creek, VIC 3775, Australia",-37.631723,145.3917831
534,Tarrawarra,3775,Shire of Yarra Ranges,,,,,,,"Tarrawarra, VIC 3775, Australia",-37.6572776,145.4265611
535,The Patch,3792,Shire of Yarra Ranges,,,,,,,"The Patch, VIC 3792, Australia",-37.8901143,145.3912949
536,Three Bridges,3797,Shire of Yarra Ranges,,,,,,,"Three Bridges, VIC 3797, Australia",-37.85718,145.696878650087
537,Toorongo,3833,Shire of Yarra Ranges,,,,,,,"Toorongo, VIC 3833, Australia",-37.902262,146.0231389
538,Tremont,3785,Shire of Yarra Ranges,,,,,,,"Tremont, VIC 3785, Australia",-37.8788598,145.3157699
539,Wandin East,3139,Shire of Yarra Ranges,,,,,,,"Wandin East, VIC 3139, Australia",-37.81421,145.455768902598
540,Wandin North,3139,Shire of Yarra Ranges,,,,,,,"Wandin North, VIC 3139, Australia",-37.7806025,145.4262934
541,Warburton,3799,Shire of Yarra Ranges,,,,,,,"Warburton, VIC 3799, Australia",-37.77946,145.719411724138
542,Warburton East,3799,Shire of Yarra Ranges,,,,,,,"Warburton East, VIC 3799, Australia",-37.77946,145.719411724138
543,Wesburn,3799,Shire of Yarra Ranges,,,,,,,"Wesburn, VIC 3799, Australia",-37.695415,145.693112469387
544,Woori Yallock,3139,Shire of Yarra Ranges,,,,,,,"Woori Yallock, VIC 3139, Australia",-37.7793329,145.5301262
545,Yarra Glen,3775,Shire of Yarra Ranges,,,,,,,"Yarra Glen, VIC 3775, Australia",-37.6573475,145.3743964
546,Yarra Junction,3797,Shire of Yarra Ranges,,,,,,,"Yarra Junction, VIC 3797, Australia",-37.7821693,145.6150255
547,Yellingbo,3139,Shire of Yarra Ranges,,,,,,,"Yellingbo, VIC 3139, Australia",-37.8135132,145.5082046
548,Yering,3770,Shire of Yarra Ranges,,,,,,,"Yering, VIC 3770, Australia",-37.6887134,145.3746571
